{
  "norad_id": 68322,
  "name": "STARLINK-37088",
  "history": [
    {
      "epoch": "2026-03-31T16:00:01.999584Z",
      "apogee_km": 328.8893712958634,
      "perigee_km": 327.0009385610356,
      "latitude_deg": -29.132561913686267,
      "longitude_deg": 28.217292063098522,
      "height_km": 337.6675833547179,
      "semi_major_axis_km": 6706.082154928449,
      "eccentricity": 0.0001408,
      "inclination_deg": 53.1594,
      "raan_deg": 252.734,
      "arg_perigee_deg": 52.3237,
      "mean_anomaly_deg": 164.8518,
      "mean_motion_rev_day": 15.80882011
    }
  ]
}